[{"OBJECT_NAME":"STARLINK-5811","OBJECT_ID":"2023-028AY","EPOCH":"2026-03-09T18:15:42.789888","MEAN_MOTION":14.98326371,"ECCENTRICITY":0.00030614,"INCLINATION":70.0008,"RA_OF_ASC_NODE":204.4047,"ARG_OF_PERICENTER":265.1387,"MEAN_ANOMALY":94.9423,"EPHEMERIS_TYPE":0,"CLASSIFICATION_TYPE":"U","NORAD_CAT_ID":55787,"ELEMENT_SET_NO":999,"REV_AT_EPOCH":16703,"BSTAR":-2.524832e-6,"MEAN_MOTION_DOT":-1.23e-6,"MEAN_MOTION_DDOT":0},{"OBJECT_NAME":"CINEMA-2 (KHUSAT-2)","OBJECT_ID":"2013-066J","EPOCH":"2026-03-09T17:51:52.526880","MEAN_MOTION":14.83992002,"ECCENTRICITY":0.00772725,"INCLINATION":97.8811,"RA_OF_ASC_NODE":0.8363,"ARG_OF_PERICENTER":94.4582,"MEAN_ANOMALY":266.5465,"EPHEMERIS_TYPE":0,"CLASSIFICATION_TYPE":"U","NORAD_CAT_ID":39424,"ELEMENT_SET_NO":999,"REV_AT_EPOCH":66134,"BSTAR":0.00039855246,"MEAN_MOTION_DOT":3.441e-5,"MEAN_MOTION_DDOT":0}]
